{
  "type": "Feature",
  "properties": {
    "route_id": "marina_bay",
    "name": "Marina Bay waterfront loop",
    "kind": "loop",
    "distance_km": 3.729,
    "geometry_source": "OpenStreetMap via Overpass",
    "status": "candidate_requires_visual_review",
    "snapped_anchors": [
      {
        "requested_lonlat": [
          103.8545,
          1.2868
        ],
        "actual_lonlat": [
          103.854426,
          1.2868427
        ],
        "offset_m": 9.5
      },
      {
        "requested_lonlat": [
          103.8557,
          1.2896
        ],
        "actual_lonlat": [
          103.8559298,
          1.2894878
        ],
        "offset_m": 28.4
      },
      {
        "requested_lonlat": [
          103.8609,
          1.2896
        ],
        "actual_lonlat": [
          103.8608747,
          1.2896404
        ],
        "offset_m": 5.3
      },
      {
        "requested_lonlat": [
          103.861,
          1.2874
        ],
        "actual_lonlat": [
          103.8606092,
          1.2872863
        ],
        "offset_m": 45.2
      },
      {
        "requested_lonlat": [
          103.859,
          1.2838
        ],
        "actual_lonlat": [
          103.8587404,
          1.2842965
        ],
        "offset_m": 62.3
      },
      {
        "requested_lonlat": [
          103.8533,
          1.2829
        ],
        "actual_lonlat": [
          103.853165,
          1.2826886
        ],
        "offset_m": 27.9
      },
      {
        "requested_lonlat": [
          103.8545,
          1.2868
        ],
        "actual_lonlat": [
          103.854426,
          1.2868427
        ],
        "offset_m": 9.5
      }
    ],
    "attribution": "\u00a9 OpenStreetMap contributors; ODbL",
    "osm_base_timestamp": "2026-10-04T13:59:36Z"
  },
  "geometry": {
    "type": "LineString",
    "coordinates": [
      [
        103.854426,
        1.2868427
      ],
      [
        103.8544129,
        1.2869447
      ],
      [
        103.8544248,
        1.286991
      ],
      [
        103.8543715,
        1.2871667
      ],
      [
        103.8543449,
        1.2873489
      ],
      [
        103.8543288,
        1.2875848
      ],
      [
        103.8543342,
        1.2877913
      ],
      [
        103.8543506,
        1.2879555
      ],
      [
        103.8543845,
        1.2881292
      ],
      [
        103.8544858,
        1.2884241
      ],
      [
        103.8545709,
        1.2885987
      ],
      [
        103.8546424,
        1.2887116
      ],
      [
        103.8546748,
        1.2887627
      ],
      [
        103.8547604,
        1.2888758
      ],
      [
        103.8547768,
        1.2888977
      ],
      [
        103.8548427,
        1.289008
      ],
      [
        103.8549719,
        1.2890107
      ],
      [
        103.8550193,
        1.2890122
      ],
      [
        103.8554669,
        1.2889974
      ],
      [
        103.8556745,
        1.2889903
      ],
      [
        103.8557452,
        1.2889882
      ],
      [
        103.8556602,
        1.2890505
      ],
      [
        103.855677,
        1.2890606
      ],
      [
        103.8556937,
        1.2890726
      ],
      [
        103.8557276,
        1.2891073
      ],
      [
        103.8557447,
        1.2891274
      ],
      [
        103.8557599,
        1.2891485
      ],
      [
        103.855772,
        1.2891759
      ],
      [
        103.8557827,
        1.2892077
      ],
      [
        103.855791,
        1.2892384
      ],
      [
        103.8557952,
        1.2892752
      ],
      [
        103.8558947,
        1.289269
      ],
      [
        103.8559682,
        1.2893539
      ],
      [
        103.8559501,
        1.2893648
      ],
      [
        103.8559331,
        1.2893852
      ],
      [
        103.8559268,
        1.2894001
      ],
      [
        103.8559211,
        1.2894144
      ],
      [
        103.855918,
        1.2894303
      ],
      [
        103.8559193,
        1.2894503
      ],
      [
        103.8559222,
        1.2894688
      ],
      [
        103.8559298,
        1.2894878
      ],
      [
        103.8559222,
        1.2894688
      ],
      [
        103.8559193,
        1.2894503
      ],
      [
        103.855918,
        1.2894303
      ],
      [
        103.8559211,
        1.2894144
      ],
      [
        103.8559268,
        1.2894001
      ],
      [
        103.8559331,
        1.2893852
      ],
      [
        103.8559501,
        1.2893648
      ],
      [
        103.8559682,
        1.2893539
      ],
      [
        103.8558947,
        1.289269
      ],
      [
        103.8560333,
        1.2892539
      ],
      [
        103.8560259,
        1.2890712
      ],
      [
        103.8561103,
        1.2890584
      ],
      [
        103.8561763,
        1.2890323
      ],
      [
        103.856218,
        1.289008
      ],
      [
        103.8562831,
        1.288962
      ],
      [
        103.8564855,
        1.2889523
      ],
      [
        103.8568215,
        1.2889373
      ],
      [
        103.856971,
        1.2889307
      ],
      [
        103.8570374,
        1.2889294
      ],
      [
        103.8570837,
        1.2889274
      ],
      [
        103.8572828,
        1.2889187
      ],
      [
        103.8576463,
        1.2888906
      ],
      [
        103.8576548,
        1.2889294
      ],
      [
        103.8576352,
        1.2891622
      ],
      [
        103.8575873,
        1.2892712
      ],
      [
        103.8574971,
        1.289448
      ],
      [
        103.8574032,
        1.2896027
      ],
      [
        103.8574082,
        1.2896397
      ],
      [
        103.8574523,
        1.2896362
      ],
      [
        103.8575418,
        1.2896329
      ],
      [
        103.857675,
        1.289628
      ],
      [
        103.8578594,
        1.2896213
      ],
      [
        103.8580587,
        1.289618
      ],
      [
        103.8588353,
        1.2895732
      ],
      [
        103.8598542,
        1.2895145
      ],
      [
        103.8603408,
        1.2894933
      ],
      [
        103.8606311,
        1.2894755
      ],
      [
        103.8606503,
        1.2894569
      ],
      [
        103.860699,
        1.2893869
      ],
      [
        103.8607498,
        1.2894311
      ],
      [
        103.8607712,
        1.2894453
      ],
      [
        103.860775,
        1.2895704
      ],
      [
        103.8607773,
        1.2896487
      ],
      [
        103.8608747,
        1.2896404
      ],
      [
        103.8607773,
        1.2896487
      ],
      [
        103.860775,
        1.2895704
      ],
      [
        103.8607712,
        1.2894453
      ],
      [
        103.8607498,
        1.2894311
      ],
      [
        103.860699,
        1.2893869
      ],
      [
        103.8607334,
        1.2893057
      ],
      [
        103.8607435,
        1.2890911
      ],
      [
        103.8607109,
        1.2882074
      ],
      [
        103.8606833,
        1.2871419
      ],
      [
        103.8605815,
        1.2871509
      ],
      [
        103.8606092,
        1.2872863
      ],
      [
        103.8605815,
        1.2871509
      ],
      [
        103.8606833,
        1.2871419
      ],
      [
        103.8606589,
        1.2854981
      ],
      [
        103.8606271,
        1.2855038
      ],
      [
        103.8606271,
        1.2861624
      ],
      [
        103.8605341,
        1.2862003
      ],
      [
        103.860337,
        1.2862944
      ],
      [
        103.8601983,
        1.2863384
      ],
      [
        103.8600583,
        1.2863733
      ],
      [
        103.8599785,
        1.2863612
      ],
      [
        103.8599087,
        1.2863129
      ],
      [
        103.859859,
        1.286274
      ],
      [
        103.8597839,
        1.2862392
      ],
      [
        103.8596772,
        1.2861762
      ],
      [
        103.8595654,
        1.2860931
      ],
      [
        103.8592971,
        1.2858316
      ],
      [
        103.8592394,
        1.2857056
      ],
      [
        103.8592609,
        1.2855259
      ],
      [
        103.8592059,
        1.2852685
      ],
      [
        103.8589634,
        1.2847372
      ],
      [
        103.8588713,
        1.2845384
      ],
      [
        103.8587404,
        1.2842965
      ],
      [
        103.8583477,
        1.2836029
      ],
      [
        103.8579816,
        1.2831044
      ],
      [
        103.8578031,
        1.2828961
      ],
      [
        103.8576449,
        1.2827116
      ],
      [
        103.857311,
        1.2823643
      ],
      [
        103.8571997,
        1.2821994
      ],
      [
        103.8570913,
        1.2820318
      ],
      [
        103.8558922,
        1.2801475
      ],
      [
        103.8558807,
        1.28013
      ],
      [
        103.8555467,
        1.2803473
      ],
      [
        103.8552932,
        1.2805018
      ],
      [
        103.8545745,
        1.2809398
      ],
      [
        103.8539425,
        1.2812209
      ],
      [
        103.8534362,
        1.2816829
      ],
      [
        103.8529263,
        1.2819948
      ],
      [
        103.8528491,
        1.2820433
      ],
      [
        103.8530875,
        1.2824216
      ],
      [
        103.853165,
        1.2826886
      ],
      [
        103.8531764,
        1.2832883
      ],
      [
        103.853218,
        1.2833279
      ],
      [
        103.8532287,
        1.2834652
      ],
      [
        103.8532359,
        1.2836058
      ],
      [
        103.8532176,
        1.2836617
      ],
      [
        103.8531822,
        1.2837693
      ],
      [
        103.8531876,
        1.2838488
      ],
      [
        103.8531883,
        1.2838589
      ],
      [
        103.8531961,
        1.2840463
      ],
      [
        103.853203,
        1.2840722
      ],
      [
        103.8532071,
        1.2840892
      ],
      [
        103.8532654,
        1.2841838
      ],
      [
        103.8533744,
        1.2842054
      ],
      [
        103.8534285,
        1.2842472
      ],
      [
        103.8534808,
        1.2846973
      ],
      [
        103.8535156,
        1.2847948
      ],
      [
        103.853519,
        1.2848043
      ],
      [
        103.8535689,
        1.2849127
      ],
      [
        103.8535859,
        1.2849267
      ],
      [
        103.8536036,
        1.2849413
      ],
      [
        103.8536448,
        1.2849595
      ],
      [
        103.8537381,
        1.2849774
      ],
      [
        103.8538662,
        1.2849875
      ],
      [
        103.8539153,
        1.2849872
      ],
      [
        103.8539279,
        1.2849921
      ],
      [
        103.8539387,
        1.2850003
      ],
      [
        103.8539467,
        1.2850113
      ],
      [
        103.8541434,
        1.2855717
      ],
      [
        103.8544408,
        1.286419
      ],
      [
        103.8544601,
        1.2865097
      ],
      [
        103.8544568,
        1.2866024
      ],
      [
        103.854426,
        1.2868427
      ]
    ]
  }
}