{
  "type": "Feature",
  "properties": {
    "route_id": "woodlands_waterfront",
    "name": "Woodlands Waterfront out-and-back",
    "kind": "out_and_back",
    "distance_km": 1.45,
    "geometry_source": "OpenStreetMap via Overpass",
    "status": "candidate_requires_visual_review",
    "snapped_anchors": [
      {
        "requested_lonlat": [
          103.7782,
          1.4513
        ],
        "actual_lonlat": [
          103.7780882,
          1.4514198
        ],
        "offset_m": 18.2
      },
      {
        "requested_lonlat": [
          103.7842,
          1.4529
        ],
        "actual_lonlat": [
          103.7827628,
          1.4530757
        ],
        "offset_m": 160.9
      }
    ],
    "attribution": "\u00a9 OpenStreetMap contributors; ODbL",
    "osm_base_timestamp": "2026-10-04T14:01:36Z"
  },
  "geometry": {
    "type": "LineString",
    "coordinates": [
      [
        103.7780882,
        1.4514198
      ],
      [
        103.7780605,
        1.4515691
      ],
      [
        103.7780304,
        1.4517259
      ],
      [
        103.7780345,
        1.451778
      ],
      [
        103.7781127,
        1.4518286
      ],
      [
        103.7782013,
        1.4519282
      ],
      [
        103.77829,
        1.4520704
      ],
      [
        103.7783823,
        1.4522919
      ],
      [
        103.7784336,
        1.4524826
      ],
      [
        103.7785228,
        1.4525439
      ],
      [
        103.7786301,
        1.4526172
      ],
      [
        103.7789332,
        1.4527052
      ],
      [
        103.7789936,
        1.4527419
      ],
      [
        103.7790594,
        1.4527628
      ],
      [
        103.779122,
        1.4527743
      ],
      [
        103.7792239,
        1.4527595
      ],
      [
        103.7792436,
        1.4527806
      ],
      [
        103.7792905,
        1.452831
      ],
      [
        103.7793136,
        1.4528479
      ],
      [
        103.7793687,
        1.4528884
      ],
      [
        103.7794382,
        1.4529248
      ],
      [
        103.7795248,
        1.4529274
      ],
      [
        103.7795685,
        1.4529214
      ],
      [
        103.7796572,
        1.4528814
      ],
      [
        103.7797041,
        1.4528223
      ],
      [
        103.7797145,
        1.452765
      ],
      [
        103.7797058,
        1.4526973
      ],
      [
        103.7796832,
        1.4526448
      ],
      [
        103.7798037,
        1.4526539
      ],
      [
        103.7799239,
        1.4526741
      ],
      [
        103.780083,
        1.4527357
      ],
      [
        103.7802247,
        1.4528523
      ],
      [
        103.7803452,
        1.452996
      ],
      [
        103.7804308,
        1.4531654
      ],
      [
        103.7804664,
        1.4531595
      ],
      [
        103.7805442,
        1.4531476
      ],
      [
        103.7806322,
        1.4531392
      ],
      [
        103.7807523,
        1.4531239
      ],
      [
        103.780818,
        1.4531125
      ],
      [
        103.7811179,
        1.4530967
      ],
      [
        103.7813795,
        1.4531182
      ],
      [
        103.781634,
        1.4531541
      ],
      [
        103.7818741,
        1.453283
      ],
      [
        103.7819716,
        1.4533655
      ],
      [
        103.7820496,
        1.4534378
      ],
      [
        103.7821237,
        1.4535342
      ],
      [
        103.7822061,
        1.4535307
      ],
      [
        103.7823078,
        1.4534976
      ],
      [
        103.7823718,
        1.4534666
      ],
      [
        103.7824249,
        1.4534165
      ],
      [
        103.7824687,
        1.4533513
      ],
      [
        103.7825132,
        1.4532833
      ],
      [
        103.7825706,
        1.4531957
      ],
      [
        103.782632,
        1.4530902
      ],
      [
        103.7826643,
        1.4530584
      ],
      [
        103.7826935,
        1.453038
      ],
      [
        103.7827293,
        1.4530339
      ],
      [
        103.7827518,
        1.453047
      ],
      [
        103.7827628,
        1.4530757
      ],
      [
        103.7827518,
        1.453047
      ],
      [
        103.7827293,
        1.4530339
      ],
      [
        103.7826935,
        1.453038
      ],
      [
        103.7826643,
        1.4530584
      ],
      [
        103.782632,
        1.4530902
      ],
      [
        103.7825706,
        1.4531957
      ],
      [
        103.7825132,
        1.4532833
      ],
      [
        103.7824687,
        1.4533513
      ],
      [
        103.7824249,
        1.4534165
      ],
      [
        103.7823718,
        1.4534666
      ],
      [
        103.7823078,
        1.4534976
      ],
      [
        103.7822061,
        1.4535307
      ],
      [
        103.7821237,
        1.4535342
      ],
      [
        103.7820496,
        1.4534378
      ],
      [
        103.7819716,
        1.4533655
      ],
      [
        103.7818741,
        1.453283
      ],
      [
        103.781634,
        1.4531541
      ],
      [
        103.7813795,
        1.4531182
      ],
      [
        103.7811179,
        1.4530967
      ],
      [
        103.780818,
        1.4531125
      ],
      [
        103.7807523,
        1.4531239
      ],
      [
        103.7806322,
        1.4531392
      ],
      [
        103.7805442,
        1.4531476
      ],
      [
        103.7804664,
        1.4531595
      ],
      [
        103.7804308,
        1.4531654
      ],
      [
        103.7803452,
        1.452996
      ],
      [
        103.7802247,
        1.4528523
      ],
      [
        103.780083,
        1.4527357
      ],
      [
        103.7799239,
        1.4526741
      ],
      [
        103.7798037,
        1.4526539
      ],
      [
        103.7796832,
        1.4526448
      ],
      [
        103.7797058,
        1.4526973
      ],
      [
        103.7797145,
        1.452765
      ],
      [
        103.7797041,
        1.4528223
      ],
      [
        103.7796572,
        1.4528814
      ],
      [
        103.7795685,
        1.4529214
      ],
      [
        103.7795248,
        1.4529274
      ],
      [
        103.7794382,
        1.4529248
      ],
      [
        103.7793687,
        1.4528884
      ],
      [
        103.7793136,
        1.4528479
      ],
      [
        103.7792905,
        1.452831
      ],
      [
        103.7792436,
        1.4527806
      ],
      [
        103.7792239,
        1.4527595
      ],
      [
        103.779122,
        1.4527743
      ],
      [
        103.7790594,
        1.4527628
      ],
      [
        103.7789936,
        1.4527419
      ],
      [
        103.7789332,
        1.4527052
      ],
      [
        103.7786301,
        1.4526172
      ],
      [
        103.7785228,
        1.4525439
      ],
      [
        103.7784336,
        1.4524826
      ],
      [
        103.7783823,
        1.4522919
      ],
      [
        103.77829,
        1.4520704
      ],
      [
        103.7782013,
        1.4519282
      ],
      [
        103.7781127,
        1.4518286
      ],
      [
        103.7780345,
        1.451778
      ],
      [
        103.7780304,
        1.4517259
      ],
      [
        103.7780605,
        1.4515691
      ],
      [
        103.7780882,
        1.4514198
      ]
    ]
  }
}